"","SCHOOL","School.Number","X.1","Region","Distract.Number","X","Division.Name","LOCATION","EL12","MinorityStudents12","AA12","DIS12","LAT","LONG","POP12.2019","POP12.2018","POP12.2017","SUBMIT20","COMPLETE20","SUBMIT19","COMPLETE19","SUBMIT18","COMPLETE18","SUBMIT17","COMPLETE17","SUBMIT16","COMPLETE16","SUBMIT15","COMPLETE15","PERDISADV12.2019","RELDIF"
"1","ABINGDON HIGH",1030,300,7,94,302,"Washington County","ABINGDON","<10",21,"6",68.9962,36.7205411,-81.9538161,221,228,235,109,105,141,137,136,125,"119","107","100","92","103","94",31.22,-23.3576642335766
"2","ACHIEVABLE DREAM MIDDLE/HIGH",1405,58,2,117,188,"Newport News City","NEWPORT NEWS",NA,42,"37",27.0018,37.00235,-76.42708,42,53,38,38,34,47,43,34,32,"45","41","44","41","53","48",64.29,-20.9302325581395
"3","ALBEMARLE HIGH",880,223,5,2,5,"Albemarle County","CHARLOTTESVILLE","37",217,"78",126,38.0749759,-78.5002245,500,491,525,299,286,276,270,261,245,"267","253","228","210","246","235",25.2,5.92592592592593
"4","ALLEGHANY HIGH",310,252,6,3,10,"Alleghany County","COVINGTON",NA,17,"7",59.0006,37.7888953,-79.9084564,157,190,195,72,71,94,86,112,104,"108","103","112","104","124","121",37.58,-17.4418604651163
"5","ALTAVISTA HIGH",200,217,5,16,37,"Campbell County","ALTAVISTA",NA,29,"19",37.0014,37.1095512,-79.2959421,83,76,86,21,19,26,25,38,37,"42","42","44","40","53","47",44.58,-24
"6","AMELIA COUNTY HIGH",10,314,8,4,11,"Amelia County","AMELIA COURT HOUSE","<10",43,"28",48,37.3312411,-77.9877156,128,144,133,58,54,89,86,73,69,"74","70","59","55","60","57",37.5,-37.2093023255814
"7","AMHERST COUNTY HIGH",750,228,5,5,12,"Amherst County","AMHERST","<10",104,"65",116.0046,37.5701083,-79.0585912,289,263,311,104,95,99,96,110,98,"128","117","113","106","105","95",40.14,-1.04166666666667
"8","ANNANDALE HIGH",660,157,4,29,77,"Fairfax County","ANNANDALE","120",405,"80",254.9763,38.8222822,-77.2076386,491,546,499,262,251,278,264,261,239,"246","220","292","265","276","259",51.93,-4.92424242424242
"9","APPOMATTOX COUNTY HIGH",260,320,8,6,13,"Appomattox County","APPOMATTOX",NA,53,"38",57,37.3447744,-78.8256996,150,185,181,43,42,63,59,77,73,"88","82","75","68","78","74",38,-28.8135593220339
"10","ARCADIA HIGH",540,47,2,1,1,"Accomack County","OAK HALL","11",110,"63",64.998,37.9252989,-75.5499049,157,154,125,66,60,56,55,57,54,"57","51","51","47","58","54",41.4,9.09090909090909
"11","ARMSTRONG HIGH",850,10,1,123,234,"Richmond City","RICHMOND",NA,163,"162",124.9924,37.5524906,-77.4038778,172,179,235,45,40,67,58,89,75,"76","65","64","58","73","68",72.67,-31.0344827586207
"12","ATLEE HIGH",62,30,1,42,129,"Hanover County","MECHANICSVILLE","<10",73,"36",35.991,37.6646102,-77.4104878,387,428,399,234,232,243,238,240,234,"282","276","264","251","231","218",9.3,-2.52100840336134
"13","AUBURN HIGH",650,257,6,60,182,"Montgomery County","RINER",NA,7,"1",33.003,37.0596121,-80.4435313,90,107,110,66,63,64,63,81,79,"67","65","55","54","47","44",36.67,0
"14","BASSETT HIGH",10,255,6,44,143,"Henry County","BASSETT","<10",112,"50",129.976,36.7303796,-79.9572657,280,254,268,157,147,141,136,205,194,"172","153","144","127","134","130",46.42,8.08823529411765
"15","BATH COUNTY HIGH",140,241,5,9,22,"Bath County","HOT SPRINGS",NA,3,"2",NA,38.0340091,-79.7947539,31,45,47,18,18,28,26,32,32,"37","34","38","34","28","25",NA,-30.7692307692308
"16","BATTLEFIELD HIGH",290,191,4,75,219,"Prince William County","HAYMARKET","11",334,"75",65.2464,38.8453326,-77.6298068,788,728,718,475,458,477,467,433,413,"413","391","312","301","302","287",8.28,-1.9271948608137
"17","BAYSIDE HIGH",530,77,2,128,288,"Virginia Beach City","VIRGINIA BEACH","<10",313,"180",243.9925,36.8693411,-76.150632,425,451,431,176,169,193,182,235,218,"241","224","222","208","221","212",57.41,-7.14285714285714
"18","BETHEL HIGH",430,52,2,112,125,"Hampton City","HAMPTON","<10",267,NA,112.012,37.0533984,-76.4293959,328,363,357,175,164,169,158,189,177,"187","172","189","170","168","156",34.15,3.79746835443038
"19","BLACKSBURG HIGH",760,258,6,60,183,"Montgomery County","BLACKSBURG","<10",70,"14",60.003,37.2108556,-80.4593477,295,305,290,235,235,240,236,204,201,"174","166","175","168","144","136",20.34,-0.423728813559322
"20","BLAND COUNTY HIGH",260,272,7,11,26,"Bland County","ROCKY GAP",NA,0,NA,17.001,37.24103,-81.10966,45,71,62,28,25,46,45,37,37,"20","18","19","18","41","36",37.78,-44.4444444444444
"21","BLUESTONE  HIGH",980,318,8,58,179,"Mecklenburg County","SKIPWITH",NA,81,"71",76.9937,36.7054767,-78.4962415,133,113,123,61,60,65,64,44,41,"45","41","49","47","68","64",57.89,-6.25
"22","BOOKER T. WASHINGTON HIGH",880,64,2,118,194,"Norfolk City","NORFOLK","<10",160,"129",113.995,36.8532861,-76.266716,175,126,132,88,85,78,76,122,116,"129","127","135","125","139","132",65.14,11.8421052631579
"23","BRENTSVILLE DISTRICT HIGH",530,194,4,75,220,"Prince William County","NOKESVILLE","<10",70,"7",30.012,38.691208,-77.568569,246,240,255,99,96,125,126,111,108,"130","124","94","91","72","67",12.2,-23.8095238095238
"24","BRIAR WOODS HIGH",420,174,4,53,155,"Loudoun County","ASHBURN","<10",206,"49",24.9873,38.9924911,-77.5309723,447,415,408,300,295,254,250,272,262,"234","221","292","280","287","276",5.59,18
"25","BROAD RUN HIGH",740,179,4,53,156,"Loudoun County","ASHBURN","13",201,"34",76.1955,39.0227452,-77.4904783,395,413,381,221,218,258,251,242,235,"256","238","258","241","249","240",19.29,-13.1474103585657
"26","BROADWAY HIGH",870,240,5,82,251,"Rockingham County","BROADWAY","<10",36,"1",57.247,38.6064088,-78.7943693,230,223,247,134,124,115,115,112,106,"115","111","97","88","99","91",24.89,7.82608695652174
"27","BROOKE POINT HIGH",421,122,3,89,274,"Stafford County","STAFFORD",NA,259,"114",114.9889,38.4064364,-77.3961854,449,460,511,194,181,223,207,241,223,"243","225","197","182","186","179",25.61,-12.56038647343
"28","BROOKVILLE HIGH",720,220,5,16,38,"Campbell County","LYNCHBURG","<10",55,"28",63.9905,37.3457541,-79.2355284,235,241,234,88,84,94,91,107,99,"107","102","93","88","109","102",27.23,-7.69230769230769
"29","BRUNSWICK HIGH",650,310,8,13,30,"Brunswick County","LAWRENCEVILLE",NA,101,"95",77.1156,36.7684101,-77.829023,124,105,111,52,47,36,31,48,39,"51","44","55","49","44","41",62.19,51.6129032258064
"30","BRUTON HIGH",20,99,2,98,319,"York County","WILLIAMSBURG",NA,63,"26",39.997,37.3107749,-76.6915035,115,133,170,52,50,68,68,87,83,"77","72","74","70","64","60",34.78,-26.4705882352941
"31","BRYANT HIGH",2201,151,4,29,78,"Fairfax County","ALEXANDRIA","59",131,"27",68.005,38.76244,-77.07993,145,174,153,17,14,7,7,15,9,"21","18","6","4","14","10",46.9,100
"32","BUCKINGHAM COUNTY HIGH",700,311,8,15,35,"Buckingham County","BUCKINGHAM","<10",58,"46",65.9972,37.535715,-78.502401,139,124,121,60,60,65,60,64,63,"69","63","69","66","79","72",47.48,0
"33","BUFFALO GAP HIGH",660,231,5,8,17,"Augusta County","SWOOPE","25",1,NA,38.003,38.1941234,-79.2180631,122,113,119,51,46,50,47,59,56,"66","63","54","51","53","53",31.15,-2.12765957446809
"34","C.D. HYLTON HIGH",710,198,4,75,221,"Prince William County","WOODBRIDGE","37",450,"127",226.9775,38.6492862,-77.3845405,557,549,557,280,271,288,270,302,279,"311","294","328","294","296","279",40.75,0.37037037037037
"35","CAROLINE HIGH",460,104,3,17,41,"Caroline County","MILFORD","<10",139,"92",127.0052,38.0004154,-77.4147105,268,276,277,123,115,109,104,127,117,"120","107","107","100","90","80",47.39,10.5769230769231
"36","CARROLL COUNTY HIGH",1230,280,7,18,42,"Carroll County","HILLSVILLE","<10",18,NA,110.9919,36.7633838,-80.7248998,267,272,274,104,100,97,95,101,93,"103","95","96","89","115","111",41.57,5.26315789473684
"37","CARVER COLLEGE AND CAREER ACADEMY",30,16,1,21,53,"Chesterfield County","CHESTER","<10",71,"44",68.9962,37.3484421,-77.4725573,91,79,80,26,25,28,24,31,25,"25","18","20","14","22","21",75.82,4.16666666666667
"38","CASTLEWOOD HIGH",791,290,7,83,255,"Russell County","CASTLEWOOD",NA,0,NA,44.9995,36.8719736,-82.2962094,65,67,74,41,40,50,50,32,31,"38","33","45","44","56","51",69.23,-20
"39","CAVE SPRING HIGH",470,266,6,80,245,"Roanoke County","ROANOKE","<10",55,"16",34,37.2134145,-80.0014986,250,241,228,171,167,171,167,156,147,"177","171","161","150","139","128",13.6,0
"40","CENTRAL HIGH",1000,304,7,96,313,"Wise County","NORTON",NA,6,NA,86.4442,36.9549332,-82.5990372,157,173,167,86,85,114,112,90,85,"90","84","83","77","82","78",55.06,-24.1071428571429
"41","CENTRAL HIGH",280,109,3,49,149,"King and Queen County","KING AND QUEEN COURT HOUSE",NA,24,"21",25.9999,37.6743779,-76.8829122,37,34,30,26,25,18,18,16,13,"10","9","12","10","17","17",70.27,38.8888888888889
"42","CENTRAL HIGH",560,317,8,55,171,"Lunenburg County","VICTORIA",NA,48,"45",54.998,36.9850031,-78.2159615,107,110,84,34,32,36,34,36,34,"53","47","47","45","48","45",51.4,-5.88235294117647
"43","CENTRAL HIGH",780,203,4,85,262,"Shenandoah County","WOODSTOCK",NA,43,"8",69.977,38.8661147,-78.5228762,190,182,193,77,73,70,64,76,71,"60","56","80","72","76","71",36.83,14.0625
"44","CENTREVILLE HIGH",200,150,4,29,79,"Fairfax County","CLIFTON","52",454,"74",160.0031,38.8250526,-77.4109045,647,664,629,396,378,420,406,400,384,"362","344","352","335","358","341",24.73,-6.89655172413793
"45","CHANCELLOR HIGH",381,117,3,88,269,"Spotsylvania County","FREDERICKSBURG",NA,172,"82",162.0624,38.2735501,-77.5548058,304,315,308,141,134,136,131,145,138,"123","119","127","114","111","106",53.31,2.29007633587786
"46","CHANTILLY HIGH",131,141,4,29,80,"Fairfax County","CHANTILLY","45",463,"57",113.0025,38.8805835,-77.4073358,741,732,720,473,461,463,450,415,397,"430","414","362","339","389","372",15.25,2.44444444444444
"47","CHARLES CITY CO HIGH",100,12,1,19,43,"Charles City County","CHARLES CITY",NA,31,"28",20.0008,37.3509449,-77.0759547,46,45,44,18,18,19,18,22,21,"43","42","27","26","28","27",43.48,0
"48","CHARLES J COLGAN SR HIGH",5010,193,4,75,222,"Prince William County","MANASSAS","24",366,"128",141.987,38.64568,-77.44391,705,519,386,379,365,275,267,173,187,"<5","<5",NA,NA,NA,NA,20.14,36.7041198501873
"49","CHARLOTTESVILLE HIGH",140,211,5,104,45,"Charlottesville City","CHARLOTTESVILLE","12",140,"83",91.0052,38.0524009,-78.4761783,286,264,265,164,157,153,148,173,163,"160","152","132","122","150","142",31.82,6.08108108108108
"50","CHATHAM HIGH",1720,264,6,71,208,"Pittsylvania County","CHATHAM","<10",44,"31",79.9974,36.787541,-79.402455,147,157,151,76,74,91,91,96,89,"77","70","88","77","77","74",54.42,-18.6813186813187
"51","CHILHOWIE HIGH",460,295,7,86,265,"Smyth County","CHILHOWIE",NA,2,"1",28.9968,36.8046049,-81.673446,84,107,80,48,44,62,60,51,48,"60","49","38","37","55","54",34.52,-26.6666666666667
"52","CHINCOTEAGUE HIGH",580,48,2,1,2,"Accomack County","CHINCOTEAGUE",NA,10,"6",14.999,37.9435111,-75.3640768,53,43,40,29,27,22,22,28,28,"23","20","24","24","17","16",28.3,22.7272727272727
"53","CHRISTIANSBURG HIGH",770,259,6,60,184,"Montgomery County","CHRISTIANSBURG","<10",32,"11",72.9988,37.1455846,-80.4180103,217,259,273,142,138,166,159,200,198,"156","150","162","153","122","116",33.64,-13.2075471698113
"54","CHURCHLAND HIGH",500,67,2,121,213,"Portsmouth City","PORTSMOUTH","<10",304,"264",179.9937,36.8804329,-76.3709524,387,355,318,160,155,174,165,145,135,"166","152","153","140","154","145",46.51,-6.06060606060606
"55","CLARKE COUNTY HIGH",10,131,4,22,64,"Clarke County","BERRYVILLE","<10",29,"2",28.0056,39.1620467,-77.9949507,168,181,156,77,76,106,103,79,77,"108","100","104","97","76","74",16.67,-26.2135922330097
"56","CLOVER HILL HIGH",740,22,1,21,54,"Chesterfield County","MIDLOTHIAN","<10",198,"88",148.3037,37.4479115,-77.6398735,461,475,507,279,274,266,261,290,273,"289","267","235","220","245","237",32.17,4.98084291187739
"57","COLONIAL BEACH HIGH",21,105,3,202,65,"Colonial Beach","COLONIAL BEACH",NA,13,"9",17.0015,38.25769,-76.96898,37,46,44,30,26,27,24,30,26,"27","24","24","22","21","20",45.95,8.33333333333333
"58","COLONIAL FORGE HIGH",424,123,3,89,275,"Stafford County","STAFFORD",NA,311,"148",91.0112,38.4346596,-77.4508901,544,556,505,77,76,106,103,252,243,"278","264","222","205","214","206",16.73,-26.2135922330097
"59","COLONIAL HEIGHTS HIGH",40,1,1,106,66,"Colonial Heights City","COLONIAL HEIGHTS","<10",67,"38",96.0004,37.268127,-77.39151,214,225,199,279,274,266,261,126,114,"143","135","124","117","121","112",44.86,4.98084291187739
"60","COSBY HIGH",840,24,1,21,55,"Chesterfield County","MIDLOTHIAN","<10",161,"86",92.02,37.40342,-77.69895,535,600,491,319,313,376,368,317,301,"334","325","294","278","299","288",17.2,-14.945652173913
"61","COUNCIL HIGH",1000,276,7,14,31,"Buchanan County","HONAKER",NA,0,NA,14.0004,37.08192,-82.07919,18,34,21,8,8,24,24,15,15,"15","13","13","11","15","14",77.78,-66.6666666666667
"62","COURTLAND HIGH",20,115,3,88,270,"Spotsylvania County","SPOTSYLVANIA",NA,156,"70",118.7746,38.2321089,-77.5517318,301,307,279,127,125,130,126,149,140,"143","131","154","141","137","130",39.46,-0.793650793650794
"63","COVINGTON HIGH",350,242,6,107,67,"Covington City","COVINGTON",NA,20,"11",32.9984,37.7840569,-79.9915868,64,80,65,34,33,45,39,34,33,"36","35","33","33","33","33",51.56,-15.3846153846154
"64","CRAIG COUNTY HIGH",11,251,6,23,68,"Craig County","NEW CASTLE",NA,2,NA,18.9975,37.5157511,-80.0847101,51,56,65,21,21,26,25,41,40,"25","24","25","22","29","28",37.25,-16
"65","CULPEPER COUNTY HIGH",480,132,4,24,69,"Culpeper County","CULPEPER","<10",104,"32",77.9974,38.4942925,-77.9868418,262,296,300,129,121,123,118,126,116,"125","117","101","95","118","109",29.77,2.54237288135593
"66","CUMBERLAND HIGH",151,313,8,25,71,"Cumberland County","CUMBERLAND","<10",50,"42",71.9952,37.4910154,-78.2468916,106,107,95,43,41,46,39,50,45,"50","48","53","49","54","47",67.92,5.12820512820513
"67","DAN RIVER HIGH",1680,262,6,71,209,"Pittsylvania County","RINGGOLD","<10",56,"48",95.997,36.6615758,-79.3001272,165,162,157,75,71,95,90,95,88,"80","70","78","74","81","78",58.18,-21.1111111111111
"68","DEEP CREEK HIGH",100,87,2,136,46,"Chesapeake City","CHESAPEAKE","<10",213,"130",157.9854,36.7549431,-76.352309,358,362,369,181,173,226,217,235,229,"202","191","180","171","190","181",44.13,-20.2764976958525
"69","DEEP RUN HIGH",160,32,1,43,134,"Henrico County","GLEN ALLEN","<10",143,"29",28.0151,37.6756382,-77.5996397,433,472,471,248,243,283,276,294,284,"246","236","248","237","214","206",6.47,-11.9565217391304
"70","DENBIGH HIGH",280,59,2,117,189,"Newport News City","NEWPORT NEWS","44",238,"146",120.993,37.1261358,-76.5482626,310,261,312,88,78,77,69,97,86,"104","91","90","76","120","110",39.03,13.0434782608696
"71","DINWIDDIE HIGH",500,25,1,27,75,"Dinwiddie County","DINWIDDIE","<10",155,"125",146.9865,37.1138337,-77.5828966,327,302,315,152,148,119,115,157,136,"143","126","128","112","124","119",44.95,28.695652173913
"72","DOMINION HIGH",31,172,4,53,157,"Loudoun County","STERLING","39",237,"28",130.9888,39.0262133,-77.3735847,422,370,394,234,223,203,194,226,209,"188","179","193","176","177","171",31.04,14.9484536082474
"73","DOUGLAS S. FREEMAN HIGH",410,34,1,43,135,"Henrico County","RICHMOND","24",145,"46",128.0136,37.59557,-77.53397,429,445,433,223,216,245,238,229,214,"229","217","226","207","216","205",29.84,-9.2436974789916
"74","E.C. GLASS HIGH",260,214,5,115,172,"Lynchburg City","LYNCHBURG","<10",194,"154",170.0082,37.4075276,-79.1667579,342,330,329,191,182,181,171,169,153,"180","151","163","146","191","176",49.71,6.4327485380117
"75","EAST ROCKINGHAM HIGH",391,238,5,82,252,"Rockingham County","ELKTON",NA,29,"5",50.806,38.39935,-78.65372,191,185,167,76,75,83,80,89,80,"79","71","77","69","73","71",26.6,-6.25
"76","EASTERN MONTGOMERY HIGH",904,260,6,60,185,"Montgomery County","ELLISTON","<10",11,NA,42.0003,37.2044,-80.2308,69,63,79,33,32,39,38,54,49,"29","28","29","29","28","28",60.87,-15.7894736842105
"77","EASTERN VIEW HIGH",50,133,4,24,70,"Culpeper County","CULPEPER","11",141,"47",103.994,38.47506,-77.94739,319,301,328,158,153,109,103,138,127,"133","122","118","112","121","112",32.6,48.5436893203884
"78","EASTSIDE HIGH",652,306,7,96,314,"Wise County","ST. PAUL",NA,1,NA,53.998,36.94586,-82.4683842,98,105,109,60,54,57,53,54,51,"46","45","39","35","29","28",55.1,1.88679245283019
"79","EDISON HIGH",1270,139,4,29,81,"Fairfax County","ALEXANDRIA","85",424,"121",196.9937,38.7827184,-77.1339066,563,491,457,275,266,258,244,267,250,"248","230","231","218","214","203",34.99,9.01639344262295
"80","ESSEX HIGH",10,106,3,28,76,"Essex County","TAPPAHANNOCK","<10",64,"45",55.0046,37.9239309,-76.8743076,101,95,123,38,36,46,42,60,53,"39","36","52","47","46","43",54.46,-14.2857142857143
"81","FAIRFAX HIGH",20,149,4,29,82,"Fairfax County","FAIRFAX","38",364,"50",123.9888,38.8598925,-77.2861676,624,566,578,176,173,225,216,322,311,"283","273","304","281","372","351",19.87,-19.9074074074074
"82","FALLS CHURCH HIGH",1100,137,4,29,83,"Fairfax County","FALLS CHURCH","84",385,"38",225.4744,38.8619112,-77.2063375,472,481,446,98,92,146,141,194,185,"171","160","174","158","159","147",47.77,-34.7517730496454
"83","FAUQUIER HIGH",701,162,4,30,105,"Fauquier County","WARRENTON","10",97,"33",55.9988,38.7202697,-77.8150169,356,348,338,175,169,154,146,168,161,"149","136","145","138","142","138",15.73,15.7534246575342
"84","FIRST COLONIAL HIGH",610,78,2,128,289,"Virginia Beach City","VIRGINIA BEACH","<10",140,"67",124.9976,36.8739705,-76.0300339,404,469,439,207,198,237,226,245,235,"289","278","241","223","273","264",30.94,-12.3893805309735
"85","FLOYD COUNTY HIGH",660,253,6,31,108,"Floyd County","FLOYD","<10",14,"3",54.3534,36.9089206,-80.3078833,157,157,190,95,95,100,97,115,108,"94","92","71","63","73","70",34.62,-2.06185567010309
"86","FLOYD KELLAM HIGH",440,76,2,128,290,"Virginia Beach City","VIRGINIA BEACH",NA,118,"21",57.0138,36.7435819,-76.062446,501,485,548,277,270,298,293,323,308,"286","275","271","262","273","263",11.38,-7.84982935153584
"87","FLUVANNA COUNTY HIGH",260,225,5,32,109,"Fluvanna County","PALMYRA",NA,67,"46",73.0128,37.8722192,-78.2987307,287,257,266,174,173,126,120,147,140,"137","130","143","130","145","139",25.44,44.1666666666667
"88","FOREST PARK HIGH",870,200,4,75,223,"Prince William County","WOODBRIDGE","29",359,"139",154.9965,38.6118993,-77.3640596,541,534,546,265,255,270,257,263,250,"262","246","255","238","285","269",28.65,-0.778210116731518
"89","FORT CHISWELL HIGH",760,309,7,97,316,"Wythe County","MAX MEADOWS",NA,5,"3",41.0032,36.9297397,-80.9391577,112,130,126,62,60,63,61,94,91,"62","58","53","51","50","45",36.61,-1.63934426229508
"90","FORT DEFINACE HIGH",670,232,5,8,18,"Augusta County","FORT DEFIANCE","<10",21,"2",44.0046,38.2472911,-78.9738958,174,196,183,70,64,86,83,86,83,"99","92","85","80","77","73",25.29,-22.8915662650602
"91","FRANK W. COX HIGH",30,74,2,128,291,"Virginia Beach City","VIRGINIA BEACH","<10",114,"47",112.0085,36.8871724,-76.0516977,415,421,474,213,207,228,224,262,247,"251","241","241","231","249","236",26.99,-7.58928571428571
"92","FRANKLIN COUNTY HIGH",1311,254,6,33,111,"Franklin County","ROCKY MOUNT",NA,92,"39",172.0108,37.0038712,-79.8779834,494,518,480,257,246,289,281,274,256,"279","260","265","243","276","262",34.82,-12.4555160142349
"93","FRANKLIN HIGH",20,86,2,135,110,"Franklin City","FRANKLIN","<10",63,"58",37.9983,36.6915818,-76.9477963,69,73,64,35,35,36,33,41,35,"34","33","34","30","40","36",55.07,6.06060606060606
"94","FRANKLIN MILITARY ACADEMY",621,7,1,123,235,"Richmond City","RICHMOND",NA,49,"47",32.0019,37.52874,-77.40388,49,47,36,29,28,33,33,31,27,"21","17","26","25","28","26",65.31,-15.1515151515152
"95","FREEDOM HIGH",120,169,4,53,158,"Loudoun County","SOUTH RIDING","<10",252,"27",53.998,38.9131399,-77.5365047,490,468,429,344,335,329,325,284,276,"230","215","228","218","178","171",11.02,3.07692307692308
"96","FREEDOM HIGH",300,192,4,75,224,"Prince William County","WOODBRIDGE","119",531,"161",367.0197,38.6215541,-77.2877119,563,562,526,191,179,208,194,215,184,"174","147","162","137","188","174",65.19,-7.7319587628866
"97","GALAX HIGH",31,273,7,111,116,"Galax City","GALAX","11",36,"6",50.9964,36.6546001,-80.9243246,91,98,84,52,50,47,41,51,42,"54","49","52","47","65","57",56.04,21.9512195121951
"98","GALILEO MAGNET HIGH",1374,243,6,108,72,"Danville City","DANVILLE","<10",43,"32",27,36.58471,-79.39378,72,63,58,52,47,54,54,37,35,"39","39","38","37","27","23",37.5,-12.962962962963
"99","GAR-FIELD HIGH",690,197,4,75,225,"Prince William County","WOODBRIDGE","104",586,"144",385.985,38.62824,-77.29269,646,601,590,271,254,273,255,249,232,"297","282","231","216","261","243",59.75,-0.392156862745098
"100","GATE CITY HIGH",770,292,7,84,259,"Scott County","GATE CITY",NA,7,"2",47.9964,36.6396185,-82.568819,141,180,162,80,74,96,90,88,83,"94","91","86","77","88","84",34.04,-17.7777777777778
"101","GEORGE MASON HIGH",251,127,4,109,104,"Falls Church City","FALLS CHURCH","<10",77,"11",16.005,38.8965952,-77.1914022,194,208,206,124,115,138,137,150,144,"132","128","113","107","105","102",8.25,-16.0583941605839
"102","GEORGE WASHINGTON HIGH",210,244,6,108,73,"Danville City","DANVILLE","<10",246,"210",123.9953,36.5857022,-79.4123554,299,221,207,103,93,117,108,150,138,"140","134","142","128","150","135",41.47,-13.8888888888889
"103","GEORGE WYTHE HIGH",721,308,7,97,317,"Wythe County","WYTHEVILLE","<10",18,"12",39.997,36.9412456,-81.10247,94,102,120,56,53,55,51,73,68,"73","67","65","61","64","61",42.55,3.92156862745098
"104","GEORGE WYTHE HIGH",741,9,1,123,236,"Richmond City","RICHMOND","21",173,"129",117.993,37.510214,-77.483051,185,227,217,63,58,75,68,67,58,"72","58","69","65","92","80",63.78,-14.7058823529412
"105","GILES HIGH",461,282,7,35,117,"Giles County","PEARISBURG","<10",7,NA,36.9936,37.3277996,-80.7045485,112,134,126,70,69,69,67,68,59,"88","83","67","65","73","70",33.03,2.98507462686567
"106","GLEN ALLEN HIGH",96,39,1,43,136,"Henrico County","GLEN ALLEN","12",182,"80",96.0057,37.66726,-77.53385,441,433,450,257,251,266,259,324,303,"276","263","260","241","248","238",21.77,-3.08880308880309
"107","GLENVAR HIGH",610,268,6,80,246,"Roanoke County","ROANOKE","<10",12,"3",33.0015,37.2805334,-80.1390669,147,139,127,89,87,86,84,75,69,"84","83","83","81","62","58",22.45,3.57142857142857
"108","GLOUCESTER HIGH",260,107,3,36,119,"Gloucester County","GLOUCESTER","<10",70,"30",152.004,37.3818445,-76.5251587,424,390,466,168,162,174,167,157,144,"176","166","142","129","152","141",35.85,-2.9940119760479
"109","GOOCHLAND HIGH",220,26,1,37,120,"Goochland County","GOOCHLAND","<10",55,"38",30.9981,37.6998177,-77.8969823,203,224,199,116,113,106,101,97,89,"113","104","111","100","98","94",15.27,11.8811881188119
"110","GRAFTON HIGH",332,102,2,98,320,"York County","YORKTOWN","<10",123,"36",33.988,37.1635125,-76.4700586,293,293,285,157,151,169,165,158,150,"153","145","162","155","162","153",11.6,-8.48484848484849
"111","GRAHAM HIGH",940,299,7,92,285,"Tazewell County","BLUEFIELD",NA,13,"4",39.996,37.2377269,-81.2709841,132,120,118,88,82,63,59,74,68,"81","76","65","61","60","60",30.3,38.9830508474576
"112","GRANBY HIGH",390,61,2,118,195,"Norfolk City","NORFOLK","<10",313,"218",262.0152,36.9070077,-76.2774084,453,439,478,183,177,214,204,232,222,"250","227","218","203","209","199",57.84,-13.2352941176471
"113","GRASSFIELD HIGH",960,93,2,136,47,"Chesapeake City","CHESAPEAKE","<10",212,"78",66.997,36.7138176,-76.3190925,563,558,508,300,289,330,321,344,327,"269","265","300","285","245","240",11.9,-9.96884735202492
"114","GRAYSON COUNTY HIGH",421,284,7,38,121,"Grayson County","INDEPENDENCE",NA,10,"3",56.005,36.6213372,-81.146822,115,110,121,63,62,48,46,59,55,"57","53","62","57","69","67",48.7,34.7826086956522
"115","GREAT BRIDGE HIGH",120,88,2,136,48,"Chesapeake City","CHESAPEAKE","<10",154,"82",83.997,36.6886596,-76.2401676,366,340,352,174,170,219,212,219,213,"185","174","185","174","225","215",22.95,-19.811320754717
"116","GREEN RUN COLLEGIATE",1050,73,2,128,292,"Virginia Beach City","VIRGINIA BEACH",NA,57,"31",31.0032,36.80526,-76.11114,72,84,64,48,48,58,55,52,49,"47","44",NA,NA,NA,NA,43.06,-12.7272727272727
"117","GREEN RUN HIGH",10,71,2,128,293,"Virginia Beach City","VIRGINIA BEACH","<10",234,"133",193.9876,36.8040758,-76.110823,332,357,358,110,101,161,155,163,156,"195","180","194","182","187","172",58.43,-34.8387096774194
"118","GREENSVILLE COUNTY HIGH",200,315,8,40,123,"Greensville County","EMPORIA","<10",111,"102",79.9981,36.6798602,-77.5528583,149,175,186,59,54,63,57,78,72,"85","78","64","59","72","66",53.69,-5.26315789473684
"119","GRETNA HIGH",1700,263,6,71,210,"Pittsylvania County","GRETNA",NA,63,"53",96.0036,36.9456361,-79.3687596,154,137,120,71,65,72,71,70,62,"75","71","74","71","70","70",62.34,-8.45070422535211
"120","GRUNDY HIGH",990,279,7,14,32,"Buchanan County","GRUNDY","<10",2,NA,64.0042,37.2832764,-82.0614375,103,106,103,46,43,51,48,55,52,"61","57","42","40","63","55",62.14,-10.4166666666667
"121","HALIFAX COUNTY HIGH",10,316,8,41,124,"Halifax County","SOUTH BOSTON","<10",176,"150",157.012,36.7309802,-78.9087562,340,339,363,136,127,140,138,161,149,"155","143","148","133","158","146",46.18,-7.97101449275362
"122","HAMPTON HIGH",280,50,2,112,126,"Hampton City","HAMPTON","<10",291,"241",128.9873,37.0238426,-76.382332,313,299,255,142,136,161,147,155,132,"189","177","170","144","162","142",41.21,-7.48299319727891
"123","HANOVER HIGH",554,29,1,42,130,"Hanover County","MECHANICSVILLE","<10",68,"31",32.992,37.688381,-77.3847555,320,344,336,177,176,206,202,190,177,"193","182","170","157","154","147",10.31,-12.8712871287129
"124","HARRISONBURG HIGH",12,212,5,113,133,"Harrisonburg City","HARRISONBURG","<10",306,"62",301.0122,38.4426144,-78.9099879,459,459,458,229,218,242,229,254,235,"211","183","148","135","183","167",65.58,-4.80349344978166
"125","HAYFIELD SECONDARY",1800,146,4,29,84,"Fairfax County","ALEXANDRIA","45",348,"137",134.9878,38.750849,-77.1432134,502,551,488,314,305,343,336,311,293,"290","278","288","275","293","279",26.89,-9.22619047619048
"126","HENRICO HIGH",610,37,1,43,137,"Henrico County","RICHMOND","<10",350,"270",196.9865,37.603757,-77.4329945,395,407,402,208,201,223,217,232,218,"261","237","228","212","185","167",49.87,-7.37327188940092
"127","HERITAGE HIGH",130,213,5,115,173,"Lynchburg City","LYNCHBURG","<10",155,"108",126.009,37.3631166,-79.2060821,234,227,257,127,118,109,106,133,117,"111","103","112","97","126","117",53.85,11.3207547169811
"128","HERITAGE HIGH",1395,56,2,117,190,"Newport News City","NEWPORT NEWS","<10",249,"225",144.039,37.0055645,-76.4290941,266,271,317,93,84,102,96,155,130,"144","124","96","84","90","87",54.15,-12.5
"129","HERITAGE HIGH",900,181,4,53,159,"Loudoun County","LEESBURG","21",159,"32",71.0102,39.0842357,-77.5697537,359,364,352,218,203,209,205,223,209,"198","190","155","143","168","162",19.78,-0.975609756097561
"130","HERMITAGE HIGH",670,38,1,43,138,"Henrico County","RICHMOND","25",269,"177",212.9895,37.632824,-77.517171,405,348,391,183,177,160,147,218,201,"187","168","205","187","201","181",52.59,20.4081632653061
"131","HERNDON HIGH",32,155,4,29,85,"Fairfax County","HERNDON","92",357,"40",183.9916,38.9861238,-77.3749377,533,530,489,287,276,268,261,297,285,"250","235","245","230","255","239",34.52,5.74712643678161
"132","HICKORY HIGH",890,92,2,136,49,"Chesapeake City","CHESAPEAKE","<10",113,"40",36.9792,36.648692,-76.216267,428,414,444,221,211,221,219,251,240,"236","226","230","222","249","238",8.64,-3.65296803652968
"133","HIDDEN VALLEY HIGH",754,270,6,80,247,"Roanoke County","ROANOKE","<10",52,"10",31.9902,37.2241006,-80.0241968,222,188,248,160,156,117,111,177,171,"145","142","129","124","162","154",14.41,40.5405405405405
"134","HIGHLAND HIGH",220,227,5,45,145,"Highland County","MONTEREY",NA,0,NA,13,38.40723,-79.57905,16,14,12,6,6,11,11,5,4,"5","5","10","10","4","4",81.25,-45.4545454545455
"135","HIGHLAND SPRINGS HIGH",190,33,1,43,139,"Henrico County","HIGHLAND SPRINGS","<10",364,"325",244.0165,37.5398308,-77.3241416,403,383,409,173,164,182,170,203,182,"247","225","179","162","180","171",60.55,-3.52941176470588
"136","HOLSTON HIGH",1060,303,7,94,303,"Washington County","DAMASCUS",NA,4,NA,33.999,36.6540786,-81.7941724,70,74,73,27,27,47,45,41,38,"45","38","34","27","37","35",48.57,-40
"137","HONAKER HIGH",540,289,7,83,256,"Russell County","HONAKER",NA,0,NA,56.9976,37.0170552,-81.978459,102,76,76,59,55,52,51,44,44,"75","72","46","42","45","44",55.88,7.84313725490196
"138","HOPEWELL HIGH",120,2,1,114,146,"Hopewell City","HOPEWELL","<10",171,"151",100.9944,37.2899315,-77.3150379,249,257,253,101,93,115,109,114,105,"125","114","107","92","118","106",40.56,-14.6788990825688
"139","HUGUENOT HIGH",1510,4,1,123,237,"Richmond City","RICHMOND","19",227,"188",133.5296,37.531693,-77.5409084,256,317,292,94,89,159,149,183,169,"142","132","115","103","86","77",52.16,-40.2684563758389
"140","HURLEY HIGH",1020,277,7,14,33,"Buchanan County","HURLEY",NA,0,NA,27.9999,37.3800584,-82.0005726,53,39,40,19,19,16,15,16,14,"18","16","16","14","24","22",52.83,26.6666666666667
"141","I.C. NORCOM HIGH",240,66,2,121,214,"Portsmouth City","PORTSMOUTH",NA,207,"195",127.0092,36.8360718,-76.3197416,212,230,271,102,97,122,112,137,125,"148","136","127","112","151","139",59.91,-13.3928571428571
"142","INDIAN RIVER HIGH",830,90,2,136,50,"Chesapeake City","CHESAPEAKE","<10",320,"225",183.9849,36.7969812,-76.2415753,439,368,332,185,177,208,201,190,178,"201","185","202","183","193","182",41.91,-11.9402985074627
"143","J.I. BURTON HIGH",20,274,7,119,201,"Norton City","NORTON",NA,13,"7",38.0016,36.9297613,-82.6334039,52,53,57,46,45,41,39,45,43,"37","36","33","31","36","32",73.08,15.3846153846154
"144","JAMES MONROE HIGH",40,103,3,110,115,"Fredericksburg City","FREDERICKSBURG","10",156,"85",114.9984,38.3112017,-77.4751219,242,240,231,137,125,114,110,113,105,"92","79","121","108","90","82",47.52,13.6363636363636
"145","JAMES RIVER HIGH",430,246,6,12,27,"Botetourt County","BUCHANAN","<10",8,NA,24.0024,37.5468429,-79.7257825,137,141,133,73,71,102,98,95,91,"86","79","85","79","99","95",17.52,-27.5510204081633
"146","JAMES RIVER HIGH",770,23,1,21,56,"Chesterfield County","MIDLOTHIAN","41",190,"64",112.1428,37.552284,-77.649329,484,516,505,243,233,229,224,254,241,"276","262","231","210","237","227",23.17,4.01785714285714
"147","JAMES WOOD HIGH",30,164,4,34,112,"Frederick County","WINCHESTER","<10",41,"10",79.2414,39.2145511,-78.18269,342,301,327,147,142,136,132,141,134,"150","143","143","129","150","147",23.17,7.57575757575758
"148","JAMESTOWN HIGH",202,83,2,131,309,"Williamsburg-James City County","WILLIAMSBURG",NA,107,"29",63.9834,37.25109,-76.79001,338,328,317,168,163,196,191,184,175,"215","208","159","152","159","153",18.93,-14.6596858638743
"149","JEFFERSON FOREST HIGH",1212,209,5,10,23,"Bedford County","FOREST",NA,61,"20",52.0001,37.3759918,-79.303512,331,351,331,156,155,167,164,140,136,"157","154","169","160","177","173",15.71,-5.48780487804878
"150","JOHN CHAMPE HIGH",370,173,4,53,160,"Loudoun County","ALDIE","15",354,"65",79.002,38.93336,-77.56768,570,496,459,329,313,287,283,278,270,"220","210","191","183","152","146",13.86,10.6007067137809
"151","JOHN HANDLEY HIGH",40,128,4,132,312,"Winchester City","WINCHESTER",NA,137,"31",144.012,39.17748,-78.17484,264,292,303,120,111,125,120,119,106,"136","121","124","110","113","103",54.55,-7.5
"152","JOHN MARSHALL HIGH",730,8,1,123,238,"Richmond City","RICHMOND",NA,123,"119",76.994,37.5942347,-77.4461855,137,145,146,54,52,61,60,71,67,"80","71","84","75","55","48",56.2,-13.3333333333333
"153","JOHN RANDOLPH TUCKER HIGH",600,36,1,43,140,"Henrico County","RICHMOND","32",266,"113",174.0154,37.62934,-77.549,403,410,442,213,205,209,200,259,241,"217","200","197","184","172","164",43.18,2.5
"154","JOHN S. BATTLE HIGH",1040,301,7,94,304,"Washington County","BRISTOL",NA,7,NA,58,36.6435947,-82.1046978,160,141,138,78,72,88,83,80,78,"86","82","86","82","68","67",36.25,-13.2530120481928
"155","JUSTICE HIGH",1070,136,4,29,86,"Fairfax County","FALLS CHURCH","151",402,"48",282.0168,38.8568,-77.14946,524,477,449,281,263,259,242,270,247,"247","227","227","206","215","197",53.82,8.67768595041322
"156","KECOUGHTAN HIGH",320,51,2,112,127,"Hampton City","HAMPTON",NA,214,"151",105.984,37.0543843,-76.3181378,368,369,391,177,171,187,177,222,208,"205","189","166","156","191","179",28.8,-3.38983050847458
"157","KEMPSVILLE HIGH",620,79,2,128,294,"Virginia Beach City","VIRGINIA BEACH","<10",191,"95",144.9956,36.8202521,-76.1565847,388,352,371,177,168,176,174,198,191,"184","171","169","161","176","168",37.37,-3.44827586206897
"158","KETTLE RUN HIGH SCH",510,161,4,30,106,"Fauquier County","NOKESVILLE","<10",66,"20",32.004,38.73245,-77.68104,315,311,312,152,146,162,155,161,155,"177","167","160","148","142","138",10.16,-5.80645161290323
"159","KING GEORGE HIGH",120,108,3,48,150,"King George County","KING GEORGE","<10",101,"59",93.9888,38.2765473,-77.1981488,321,320,322,120,115,138,134,151,143,"136","130","145","132","146","132",29.28,-14.1791044776119
"160","KING WILLIAM HIGH",130,110,3,50,151,"King William County","KING WILLIAM","<10",59,"42",45.0072,37.7421149,-77.1301604,188,170,152,68,64,63,61,56,52,"67","60","67","62","73","65",23.94,4.91803278688525
"161","KING'S FORK HIGH",395,70,2,127,280,"Suffolk City","SUFFOLK",NA,191,"161",110.004,36.7847426,-76.5934738,267,297,299,145,137,195,190,188,183,"173","162","136","131","172","166",41.2,-27.8947368421053
"162","LAFAYETTE HIGH",90,85,2,131,310,"Williamsburg-James City County","WILLIAMSBURG","15",116,"54",94.5134,37.31537,-76.76408,254,269,271,130,121,130,126,132,122,"129","120","143","133","125","118",37.21,-3.96825396825397
"163","LAKE BRADDOCK SECONDARY",90,159,4,29,87,"Fairfax County","BURKE","32",386,"55",111.9976,38.803391,-77.265172,712,730,718,470,461,455,442,481,463,"453","435","404","391","385","365",15.73,4.29864253393665
"164","LAKE TAYLOR HIGH",840,63,2,118,196,"Norfolk City","NORFOLK","<10",163,"127",120.0004,36.8705817,-76.1981392,188,188,190,100,94,117,114,141,130,"122","109","141","126","125","112",63.83,-17.5438596491228
"165","LAKELAND HIGH",300,69,2,127,281,"Suffolk City","SUFFOLK","<10",158,"144",107.0004,36.7209894,-76.6605502,228,221,174,95,91,99,95,102,96,"117","111","116","105","107","100",46.93,-4.21052631578947
"166","LANCASTER HIGH",10,111,3,51,152,"Lancaster County","LANCASTER",NA,57,"47",50.9964,37.7691731,-76.4568509,91,97,88,49,45,38,36,52,48,"43","40","49","44","43","40",56.04,25
"167","LANDSTOWN HIGH",1030,72,2,128,295,"Virginia Beach City","VIRGINIA BEACH","<10",363,"168",200.982,36.7796829,-76.1006446,570,573,544,266,255,293,288,307,289,"315","301","287","275","270","262",35.26,-11.4583333333333
"168","LANGLEY HIGH",1460,143,4,29,88,"Fairfax County","MCLEAN","10",167,"7",14.9816,38.95126,-77.16468,488,479,501,258,252,262,254,244,236,"243","235","198","185","201","188",3.07,-0.78740157480315
"169","LEBANON HIGH",140,288,7,83,257,"Russell County","LEBANON",NA,2,NA,52.003,36.8883048,-82.1100746,119,116,120,59,59,73,71,64,59,"52","46","50","45","52","49",43.7,-16.9014084507042
"170","LEE DAVIS HIGH",370,27,1,42,131,"Hanover County","MECHANICSVILLE",NA,61,"25",63.9834,37.612744,-77.3404205,338,376,390,163,158,180,178,208,200,"180","174","194","181","198","190",18.93,-11.2359550561798
"171","LEE HIGH",1020,134,4,29,89,"Fairfax County","SPRINGFIELD","91",389,"48",210.0528,38.779857,-77.169821,464,437,408,235,226,227,218,231,215,"207","199","224","212","240","223",45.27,3.6697247706422
"172","LEE HIGH",300,285,7,52,153,"Lee County","JONESVILLE","<10",5,NA,74,36.7310425,-83.0888057,148,137,131,57,52,79,77,78,74,"74","72","74","69","79","77",50,-32.4675324675325
"173","LIBERTY HIGH",1180,207,5,10,24,"Bedford County","BEDFORD",NA,44,"22",56.772,37.3718966,-79.497306,190,201,216,60,58,80,78,80,71,"71","67","85","74","76","67",29.88,-25.6410256410256
"174","LIBERTY HIGH",851,163,4,30,107,"Fauquier County","BEALETON","16",125,"34",148.4856,36.9089206,-80.3078833,328,321,336,137,131,141,137,123,115,"126","113","98","86","123","114",45.27,-4.37956204379562
"175","LLOYD C BIRD HIGH",10,14,1,21,57,"Chesterfield County","CHESTERFIELD","13",281,"175",235.0208,37.3886526,-77.4947533,427,463,459,175,163,206,196,209,192,"182","164","183","170","174","157",55.04,-16.8367346938775
"176","LORD BOTETOURT HIGH",440,247,6,12,28,"Botetourt County","DALEVILLE","<10",35,"7",36.992,37.4054993,-79.9148434,272,239,246,171,166,150,148,157,152,"151","141","167","159","132","126",13.6,12.1621621621622
"177","LOUDOUN COUNTY HIGH",660,177,4,53,161,"Loudoun County","LEESBURG","32",135,"18",79.9995,39.076767,-77.6536125,401,344,390,221,211,167,165,202,193,"212","202","200","186","200","192",19.95,27.8787878787879
"178","LOUDOUN VALLEY HIGH",680,178,4,53,162,"Loudoun County","PURCELLVILLE","19",79,"13",27.0861,39.1402175,-77.7021339,339,337,357,214,205,177,172,214,206,"208","202","188","180","173","169",7.99,19.1860465116279
"179","LOUISA COUNTY HIGH",602,229,5,54,170,"Louisa County","MINERAL","<10",109,"62",158.994,38.0175931,-77.9208521,365,344,385,143,140,157,146,211,199,"156","145","163","154","152","148",43.56,-4.10958904109589
"180","LURAY HIGH",110,184,4,69,204,"Page County","LURAY",NA,12,"2",63.9954,38.6548941,-78.4853936,126,146,138,47,46,56,56,62,59,"52","46","58","53","43","43",50.79,-17.8571428571429
"181","MADISON COUNTY HIGH",221,182,4,56,174,"Madison County","MADISON","<10",25,"14",51.0064,38.3646779,-78.2684709,142,126,125,56,56,60,60,58,54,"60","54","57","51","84","82",35.92,-6.66666666666667
"182","MADISON HIGH",1060,135,4,29,90,"Fairfax County","VIENNA","27",188,"9",60.0039,38.8964568,-77.2785044,551,538,570,345,340,345,340,328,317,"276","260","255","239","250","236",10.89,0
"183","MAGNA VISTA HIGH",20,256,6,44,144,"Henry County","RIDGEWAY","10",114,"61",80.7807,36.5932212,-79.8902124,269,240,260,120,117,99,93,146,140,"126","116","111","98","103","94",30.03,25.8064516129032
"184","MANASSAS PARK HIGH",30,130,4,144,176,"Manassas Park City","MANASSAS PARK","45",190,"28",133.9998,38.7784432,-77.4403954,237,301,269,94,87,115,109,113,107,"108","98","88","84","78","69",56.54,-20.1834862385321
"185","MANCHESTER HIGH",632,21,1,21,58,"Chesterfield County","MIDLOTHIAN","<10",222,"132",194.3851,37.4069102,-77.6231473,521,514,484,238,223,239,231,246,231,"265","251","243","235","178","174",37.31,-3.46320346320346
"186","MARION SENIOR HIGH",700,296,7,86,266,"Smyth County","MARION",NA,10,"2",47.3616,36.8387222,-81.5049458,132,147,147,59,58,80,79,77,70,"99","93","65","54","84","81",35.88,-26.5822784810127
"187","MARSHALL HIGH",1290,140,4,29,91,"Fairfax County","FALLS CHURCH","47",288,"29",92.0194,38.905904,-77.2123123,554,592,525,324,312,347,338,281,267,"287","273","218","201","197","185",16.61,-7.69230769230769
"188","MARTINSVILLE HIGH",110,245,6,116,177,"Martinsville City","MARTINSVILLE","<10",101,"82",68.9976,36.6947749,-79.8615879,126,138,149,64,57,71,65,84,77,"75","68","76","67","65","62",54.76,-12.3076923076923
"189","MASSAPONAX HIGH",506,118,3,88,271,"Spotsylvania County","FREDERICKSBURG",NA,235,"128",191.884,38.1831031,-77.5126443,445,513,499,199,191,232,219,231,219,"226","214","205","191","182","172",43.12,-12.7853881278539
"190","MATHEWS HIGH",190,112,3,57,178,"Mathews County","MATHEWS",NA,17,"9",39.9993,37.4501011,-76.3254096,93,89,101,29,27,39,37,48,44,"35","32","49","46","36","35",43.01,-27.027027027027
"191","MATOACA HIGH",530,18,1,21,59,"Chesterfield County","CHESTERFIELD","<10",207,"154",168.0096,37.2771769,-77.468062,407,445,435,179,169,217,214,225,212,"209","195","201","183","208","193",41.28,-21.0280373831776
"192","MATTHEW FONTAINE MAURY HIGH",10,60,2,118,197,"Norfolk City","NORFOLK","<10",242,"181",155.0124,36.86516,-76.29071,372,383,307,207,198,216,206,226,207,"210","200","208","196","186","182",41.67,-3.88349514563107
"193","MCLEAN HIGH",790,158,4,29,92,"Fairfax County","MCLEAN","21",247,"20",42.0256,38.923381,-77.185141,571,546,507,362,355,339,330,262,255,"298","287","285","267","253","241",7.36,7.57575757575758
"194","MEADOWBROOK HIGH",580,19,1,21,60,"Chesterfield County","RICHMOND","88",399,"215",330.2924,37.4354762,-77.4832748,433,384,382,145,133,143,134,184,164,"171","153","141","131","148","137",76.28,-0.746268656716418
"195","MENCHVILLE HIGH",1220,55,2,117,191,"Newport News City","NEWPORT NEWS","<10",192,"132",109.998,37.0958657,-76.5305491,378,367,393,151,145,154,147,181,170,"181","158","150","134","150","142",29.1,-1.36054421768707
"196","MIDDLESEX HIGH",90,113,3,59,181,"Middlesex County","SALUDA",NA,19,"14",29.9964,37.6081965,-76.6020737,84,89,102,30,26,34,34,53,51,"30","27","37","34","33","32",35.71,-23.5294117647059
"197","MIDLOTHIAN HIGH",320,17,1,21,61,"Chesterfield County","MIDLOTHIAN","<10",112,"37",59.153,37.4961717,-77.6603289,397,450,399,237,233,268,261,238,226,"230","222","210","198","214","204",14.9,-10.727969348659
"198","MILLBROOK HIGH",584,166,4,34,113,"Frederick County","WINCHESTER","23",142,"20",112.0025,39.1912949,-78.115178,355,347,363,145,140,146,138,180,160,"168","162","130","115","138","129",31.55,1.44927536231884
"199","MILLS E. GODWIN HIGH",140,31,1,43,141,"Henrico County","RICHMOND","13",170,"45",82.9776,37.61978,-77.60384,472,500,452,272,266,310,308,268,256,"277","265","268","247","242","234",17.58,-13.6363636363636
"200","MONACAN HIGH",280,15,1,21,62,"Chesterfield County","RICHMOND","<10",183,"116",130.0048,37.4791091,-77.6133651,386,361,351,202,187,196,191,187,180,"216","206","171","157","161","151",33.68,-2.09424083769634
"201","MONTICELLO HIGH",1052,221,5,2,6,"Albemarle County","CHARLOTTESVILLE","13",84,"28",73.8166,37.9989866,-78.4895468,286,287,257,129,126,155,150,131,119,"149","142","134","124","144","130",25.81,-16
"202","MOUNT VERNON HIGH",420,156,4,29,93,"Fairfax County","ALEXANDRIA","90",379,"129",216.0006,38.7266329,-77.0927247,471,543,490,185,179,208,193,215,195,"199","182","193","175","204","190",45.86,-7.25388601036269
"203","MOUNTAIN VIEW HIGH",2211,152,4,29,94,"Fairfax County","CENTREVILLE","62",122,"17",22.1265,38.83718,-77.42406,149,145,159,19,15,7,7,24,18,"22","20","17","12","21","21",14.85,114.285714285714
"204","MOUNTAIN VIEW HIGH",430,124,3,89,276,"Stafford County","CENTREVILLE",NA,175,"50",177.5371,38.4589038,-77.4978496,481,398,468,216,210,179,177,226,215,"223","213"," 192"," 180"," 202"," 195",36.91,18.6440677966102
"205","MURRAY HIGH",890,224,5,2,7,"Albemarle County","CHARLOTTESVILLE",NA,7,"3",NA,38.04056,-78.48282,21,35,24,5,5,11,11,4,4,"7","6","4","4","7","6",NA,-54.5454545454545
"206","NANDUA HIGH",70,49,2,1,3,"Accomack County","ONLEY","<10",97,NA,53.3408,37.6789392,-75.7257009,158,196,163,59,57,85,79,69,65,"61","55","72","66","64","61",33.76,-27.8481012658228
"207","NANSEMOND RIVER HIGH",240,68,2,127,282,"Suffolk City","SUFFOLK",NA,200,"157",93.0072,36.80191,-76.5181392,312,328,342,175,172,177,173,218,194,"201","188","202","196","204","194",29.81,-0.578034682080925
"208","NARROWS HIGH",470,283,7,35,118,"Giles County","NARROWS",NA,2,NA,30.0015,37.3376918,-80.8043575,59,78,71,35,32,38,36,43,38,"28","28","33","33","36","34",50.85,-11.1111111111111
"209","NELSON COUNTY HIGH",710,230,5,62,186,"Nelson County","LOVINGSTON",NA,34,"NA0",68.9964,37.7324989,-78.8961147,132,148,159,63,61,54,54,87,85,"75","68","70","66","54","48",52.27,12.962962962963
"210","NEW KENT HIGH",20,40,1,63,187,"New Kent County","NEW KENT",NA,59,"33",49.006,37.509601,-76.9809057,229,233,260,94,90,108,103,100,91,"110","102","84","79","99","95",21.4,-12.621359223301
"211","NORTH STAFFORD HIGH",30,121,3,89,277,"Stafford County","STAFFORD","21",269,"104",147.0156,38.4674556,-77.4559935,404,412,454,164,169,177,174,232,215,"202","191","190","176","184","174",36.39,-2.8735632183908
"212","NORTHAMPTON HIGH",350,97,2,65,199,"Northampton County","EASTVILLE","<10",73,"51",77.0024,37.361213,-75.9409335,101,117,113,45,41,51,50,54,47,"64","60","56","55","33","33",76.24,-18
"213","NORTHSIDE HIGH",520,267,6,80,248,"Roanoke County","ROANOKE","<10",79,"37",65.0052,37.326394,-79.996303,234,258,275,141,130,156,150,168,156,"140","132","161","142","128","122",27.78,-13.3333333333333
"214","NORTHUMBERLAND HIGH",40,114,3,66,200,"Northumberland County","HEATHSVILLE",NA,57,"50",33,37.9131248,-76.4382281,110,106,94,59,54,59,56,59,53,"59","53","48","48","51","47",30,-3.57142857142857
"215","NORTHWOOD HIGH",250,294,7,86,267,"Smyth County","SALTVILLE",NA,1,NA,30.0018,36.8783108,-81.7625515,62,73,61,23,19,36,34,25,24,"26","24","24","21","40","38",48.39,-44.1176470588235
"216","NORVIEW HIGH",580,62,2,118,198,"Norfolk City","NORFOLK","10",335,"236",243.9878,36.9003379,-76.2403305,427,439,332,173,170,216,200,203,182,"247","226","209","199","191","181",57.14,-15
"217","NOTTOWAY HIGH",301,321,8,67,202,"Nottoway County","CREWE","<10",65,"55",47.996,37.122988,-78.0653714,130,125,123,49,45,63,59,62,55,"62","58","59","52","60","58",36.92,-23.728813559322
"218","OAKTON HIGH",1710,145,4,29,95,"Fairfax County","VIENNA","42",358,"36",86.1175,38.8773783,-77.2825465,665,687,595,409,395,420,419,377,352,"350","338","302","290","270","256",12.95,-5.72792362768496
"219","OCEAN LAKES HIGH",960,82,2,128,296,"Virginia Beach City","VIRGINIA BEACH","<10",218,"80",156.0021,36.7716266,-75.9813944,529,523,534,280,274,284,268,302,292,"282","265","231","217","302","285",29.49,2.23880597014925
"220","OPEN HIGH",90,11,1,123,239,"Richmond City","RICHMOND",NA,20,"13",14.0016,37.53753,-77.45083,48,52,36,36,35,42,42,30,30,"41","40","36","35","44","42",29.17,-16.6666666666667
"221","ORANGE CO. HIGH",330,183,4,68,203,"Orange County","ORANGE","<10",122,"55",148.0038,38.2454619,-78.09634,393,377,355,168,158,154,148,171,160,"198","183","165","152","137","132",37.66,6.75675675675676
"222","OSBOURN HIGH",370,129,4,143,175,"Manassas","MANASSAS","133",444,"48",208.008,38.7465688,-77.4668776,535,498,450,209,192,185,172,169,151,"181","163","185","169","190","172",38.88,11.6279069767442
"223","OSBOURN PARK HIGH",80,199,4,75,226,"Prince William County","MANASSAS","41",391,"84",167.277,38.7633778,-77.4493542,555,486,493,296,290,255,246,274,252,"329","303","334","312","300","277",30.14,17.8861788617886
"224","OSCAR F SMITH HIGH",80,89,2,136,51,"Chesapeake City","CHESAPEAKE","<10",407,"302",296.005,36.7402457,-76.2564033,530,467,498,238,224,250,233,262,246,"249","226","257","244","282","267",55.85,-3.86266094420601
"225","PAGE COUNTY HIGH",380,185,4,69,205,"Page County","SHENANDOAH","<10",10,"1",51.108,38.5638846,-78.610055,120,130,128,49,48,40,36,35,34,"47","46","42","37","48","46",42.59,33.3333333333333
"226","PARK VIEW HIGH",60,176,4,53,163,"Loudoun County","STERLING","91",319,"26",234.9924,39.0146237,-77.4007081,372,347,383,170,159,175,166,147,136,"158","142","140","129","147","133",63.17,-4.21686746987952
"227","PARK VIEW HIGH",990,319,8,58,180,"Mecklenburg County","SOUTH HILL",NA,87,"69",85.056,36.7030938,-78.1832508,160,195,184,85,80,99,94,82,72,"73","66","75","69","78","71",53.16,-14.8936170212766
"228","PARRY MCCLUER HIGH",62,210,5,103,36,"Buena Vista City","BUENA VISTA",NA,8,"3",19.003,37.7186786,-79.3587426,62,100,59,21,21,57,55,32,29,"46","44","25","25","34","33",30.65,-61.8181818181818
"229","PATRICK COUNTY HIGH",700,261,6,70,206,"Patrick County","STUART",NA,31,"10",50.005,36.623479,-80.2707471,137,172,182,76,72,105,100,137,128,"110","103","89","81","104","99",36.5,-28
"230","PATRICK HENRY HIGH",1050,302,7,94,305,"Washington County","GLADE SPRING",NA,3,"1",39.997,36.7762823,-81.8147326,115,102,95,50,48,45,41,52,47,"62","56","51","49","44","42",34.78,17.0731707317073
"231","PATRICK HENRY HIGH",390,248,6,124,243,"Roanoke City","ROANOKE","20",245,"182",190.9908,37.2559901,-79.9836085,468,440,421,225,215,233,225,237,216,"269","234","220","178","240","209",40.81,-4.44444444444444
"232","PATRICK HENRY HIGH",400,28,1,42,132,"Hanover County","ASHLAND","<10",85,"42",92.0124,37.7856891,-77.5340724,366,332,350,190,183,179,174,195,186,"198","192","179","172","165","159",25.14,5.17241379310345
"233","PATRIOT HIGH",1060,189,4,75,227,"Prince William County","NOKESVILLE","22",323,"70",87.248,38.72731,-77.57977,656,694,739,384,375,396,386,412,394,"388","373","340","324","411","386",13.3,-2.84974093264249
"234","PETERSBURG HIGH",200,3,1,120,207,"Petersburg City","PETERSBURG","<10",240,"225",167,37.186735,-77.3992271,250,255,249,100,91,94,87,112,98,"115","100","87","82","81","76",66.8,4.59770114942529
"235","PHOEBUS HIGH",50,53,2,112,128,"Hampton City","HAMPTON",NA,149,"121",84.0048,37.0340589,-76.3168331,176,220,218,69,66,107,100,99,88,"111","97","115","103","96","90",47.73,-34
"236","POQUOSON HIGH",10,94,2,142,212,"Poquoson City","POQUOSON","<10",17,NA,22.0014,37.128863,-76.379748,153,169,171,75,74,90,87,101,94,"100","95","107","98","95","92",14.38,-14.9425287356322
"237","POTOMAC FALLS HIGH",140,170,4,53,164,"Loudoun County","POTOMAC FALLS","18",184,"23",88.0056,39.0499603,-77.3937649,408,411,425,238,233,215,208,240,227,"224","212","211","198","192","187",21.57,12.0192307692308
"238","POTOMAC HIGH",140,190,4,75,228,"Prince William County","DUMFRIES","42",432,"238",210.994,38.5972688,-77.3092352,490,517,468,217,208,267,258,239,222,"227","212","160","146","160","153",43.06,-19.3798449612403
"239","POWHATAN HIGH",11,41,1,72,216,"Powhatan County","POWHATAN","<10",46,"23",67.2111,37.5221537,-77.8026789,341,360,346,151,145,177,171,199,191,"199","183","158","147","184","174",19.71,-15.2046783625731
"240","PRINCE EDWARD COUNTY HIGH",400,322,8,73,217,"Prince Edward County","FARMVILLE","<10",69,"60",62.0043,37.2663902,-78.3993937,123,142,141,54,48,65,60,68,63,"75","67","78","72","72","68",50.41,-20
"241","PRINCE GEORGE HIGH",20,42,1,74,218,"Prince George County","PRINCE GEORGE","<10",215,"130",173.0043,37.2061188,-77.2659358,441,436,462,164,153,205,201,233,216,"215","201","184","172","199","187",39.23,-23.8805970149254
"242","PRINCESS ANNE HIGH",321,75,2,128,297,"Virginia Beach City","VIRGINIA BEACH","<10",197,"77",144.9864,36.844798,-76.1271935,468,459,487,240,231,232,224,274,261,"270","263","216","207","235","226",30.98,3.125
"243","PULASKI COUNTY SR. HIGH",10,287,7,77,231,"Pulaski County","DUBLIN",NA,29,"14",127.9927,37.0944861,-80.7186174,253,311,354,176,168,176,172,183,171,"176","166","136","124","134","128",50.59,-2.32558139534884
"244","RADFORD HIGH",41,275,7,122,232,"Radford City","RADFORD",NA,33,"16",54.002,37.1354544,-80.5700578,124,121,125,91,89,93,91,93,86,"72","70","71","62","75","72",43.55,-2.1978021978022
"245","RANDOLPH-HENRY HIGH",460,312,8,20,44,"Charlotte County","CHARLOTTE COURT HOUSE",NA,36,"29",50.004,37.05331,-78.64793,108,115,148,54,52,62,60,77,74,"59","56","60","53","73","70",46.3,-13.3333333333333
"246","RAPPAHANNOCK CO. HIGH",230,201,4,78,233,"Rappahannock County","WASHINGTON",NA,10,"3",16.9975,38.6865025,-78.1880954,65,78,81,35,31,34,34,49,44,"42","37","25","23","36","36",26.15,-8.82352941176471
"247","RAPPAHANNOCK HIGH",210,43,1,79,242,"Richmond County","WARSAW","<10",37,"28",15.9984,37.9490263,-76.7435669,99,105,80,53,53,58,56,43,37,"59","54","40","39","39","37",16.16,-5.35714285714286
"248","RICHLANDS HIGH",821,297,7,92,286,"Tazewell County","RICHLANDS",NA,4,"1",87.0064,37.0934577,-81.7773114,178,154,141,80,77,79,77,79,73,"61","57","71","64","65","63",48.88,0
"249","RICHMOND COMMUNITY HIGH",452,6,1,123,240,"Richmond City","RICHMOND","<10",42,"39",19.0025,37.56838,-77.43025,55,53,54,40,40,45,44,50,49,"54","50","51","47","29","29",34.55,-9.09090909090909
"250","RIDGEVIEW HIGH",275,281,7,26,74,"Dickenson County","CLINTWOOD",NA,2,NA,37.0037,37.13374,-82.3875,137,134,148,69,64,79,76,77,71,"28","25","39","35","4","4",27.01,-15.7894736842105
"251","RIVERBEND HIGH",510,119,3,88,272,"Spotsylvania County","FREDERICKSBURG",NA,152,"53",141.3261,38.2951896,-77.575414,459,456,504,185,184,251,245,250,231,"236","222","215","197","220","210",30.79,-24.8979591836735
"252","RIVERHEADS HIGH",680,233,5,8,19,"Augusta County","STAUNTON",NA,12,"3",32.0016,38.0325604,-79.139328,113,115,107,46,44,57,56,61,58,"51","47","54","53","66","63",28.32,-21.4285714285714
"253","RIVERSIDE HIGH",1050,167,4,53,165,"Loudoun County","LEESBURG","11",209,"39",56.0216,39.08956,-77.48838,478,377,307,287,280,221,219,188,176,"112","110",NA,NA,NA,NA,11.72,27.8538812785388
"254","ROBINSON SECONDARY",1960,147,4,29,96,"Fairfax County","FAIRFAX","18",266,"38",69.0184,38.8171111,-77.3048881,682,646,726,438,433,439,429,434,415,"465","449","393","377","466","443",10.12,0.932400932400932
"255","ROCK RIDGE HIGH",1060,168,4,53,166,"Loudoun County","ASHBURN","20",324,"50",72.9932,38.97652,-77.50449,524,508,396,344,337,315,307,271,257,"194","187","80","78","4","4",13.93,9.77198697068404
"256","ROCKBRIDGE COUNTY HIGH",22,236,5,81,250,"Rockbridge County","LEXINGTON",NA,30,"6",70.0074,37.8018525,-79.4227768,207,233,231,110,108,136,132,140,133,"125","120","125","115","118","112",33.82,-18.1818181818182
"257","RURAL RETREAT HIGH",202,307,7,97,318,"Wythe County","RURAL RETREAT",NA,3,"1",27,36.8953151,-81.2694661,75,87,96,47,46,63,61,64,60,"47","43","51","46","45","43",36,-24.5901639344262
"258","RUSTBURG HIGH",222,218,5,16,39,"Campbell County","RUSTBURG","<10",48,"32",86.0066,37.2763691,-79.0848937,214,205,230,80,77,67,64,93,84,"77","71","82","74","69","68",40.19,20.3125
"259","RYE COVE HIGH",260,291,7,84,260,"Scott County","DUFFIELD",NA,2,NA,23,36.735492,-82.691344,46,51,53,22,22,36,34,31,30,"26","25","28","24","29","26",50,-35.2941176470588
"260","SALEM HIGH",70,250,6,139,258,"Salem City","SALEM","<10",56,"25",67.9988,37.292884,-80.078294,278,305,302,202,189,201,199,212,203,"162","148","177","162","206","199",24.46,-5.0251256281407
"261","SALEM HIGH",850,80,2,128,298,"Virginia Beach City","VIRGINIA BEACH","<10",246,"130",142.0064,36.7827184,-76.143682,398,423,431,215,205,228,220,270,253,"259","245","244","231","223","212",35.68,-6.81818181818182
"262","SHERANDO HIGH",581,165,4,34,114,"Frederick County","STEPHENS CITY","<10",100,"16",83.9883,39.0748168,-78.1927787,341,393,375,135,130,161,158,186,177,"188","176","155","146","164","151",24.63,-17.7215189873418
"263","SKYLINE HIGH",250,206,4,93,300,"Warren County","FRONT ROYAL","<10",47,"16",61.9905,38.9071724,-78.2075148,221,199,246,70,69,61,58,74,70,"76","71","78","70","82","81",28.05,18.9655172413793
"264","SMITHFIELD HIGH",40,96,2,46,147,"Isle of Wight County","SMITHFIELD",NA,107,"80",74.995,36.9453037,-76.5986919,283,292,315,145,140,143,139,151,145,"158","146","123","117","138","137",26.5,0.719424460431655
"265","SOUTH COUNTY HIGH",2241,154,4,29,97,"Fairfax County","LORTON","26",347,"113",99.0234,38.7174282,-77.2385395,542,578,583,331,323,381,375,339,321,"329","306","296","282","245","232",18.27,-13.8666666666667
"266","SOUTH LAKES HIGH",1990,148,4,29,98,"Fairfax County","RESTON","55",312,"72",148.0263,38.9321389,-77.3394418,601,615,601,343,337,340,329,344,330,"354","341","292","274","317","303",24.63,2.43161094224924
"267","SOUTHAMPTON HIGH",690,98,2,87,268,"Southampton County","COURTLAND",NA,83,"71",86.9952,36.7006951,-77.1065246,192,196,177,90,86,91,86,84,77,"89","84","93","84","90","86",45.31,0
"268","SPOTSWOOD HIGH",20,237,5,82,253,"Rockingham County","PENN LAIRD","16",84,"10",86.688,38.3753811,-78.7630769,252,236,206,131,124,132,122,104,98,"138","130","84","79","91","90",34.4,1.63934426229508
"269","SPOTSYLVANIA HIGH",370,116,3,88,273,"Spotsylvania County","SPOTSYLVANIA",NA,61,"25",133.4602,38.1599116,-77.653355,289,268,272,102,100,124,116,119,113,"116","108","129","119","112","108",46.18,-13.7931034482759
"270","STAFFORD SR. HIGH",20,120,3,89,278,"Stafford County","FREDERICKSBURG","15",197,"80",130.9896,38.3618535,-77.4641274,483,504,504,204,195,237,225,219,204,"240","224","218","203","207","200",27.12,-13.3333333333333
"271","STAUNTON HIGH",30,215,5,126,279,"Staunton City","STAUNTON","<10",73,"37",70.3566,38.1648669,-79.0532921,202,192,196,98,91,107,98,114,107,"89","83","94","88","85","81",34.83,-7.14285714285714
"272","STAUNTON RIVER HIGH",1190,208,5,10,25,"Bedford County","MONETA","<10",39,"11",103.9956,37.2412023,-79.622751,237,220,254,63,60,79,74,84,74,"85","80","90","81","70","67",43.88,-18.9189189189189
"273","STONE BRIDGE HIGH",850,180,4,53,167,"Loudoun County","ASHBURN","11",173,"32",45.021,39.0488313,-77.5087331,430,385,412,266,260,223,211,268,254,"280","270","264","256","240","228",10.47,23.2227488151659
"274","STONEWALL JACKSON HIGH",680,196,4,75,229,"Prince William County","MANASSAS","101",535,"100",336.0075,38.7652206,-77.5085508,631,583,609,197,179,222,211,233,212,"209","194","200","178","196","182",53.25,-15.1658767772512
"275","STONEWALL JACKSON HIGH",790,204,4,85,263,"Shenandoah County","QUICKSBURG","<10",37,"3",60.4474,38.7040848,-78.6638907,134,108,118,52,52,48,48,48,47,"53","52","44","40","52","48",45.11,8.33333333333333
"276","STRASBURG HIGH",770,202,4,85,264,"Shenandoah County","STRASBURG",NA,23,"2",35.9931,38.9842752,-78.3630673,143,133,134,54,53,41,41,70,65,"65","59","72","62","69","66",25.17,29.2682926829268
"277","STUARTS DRAFT HIGH",730,235,5,8,20,"Augusta County","STUARTS DRAFT",NA,18,"3",46.3117,38.0466411,-79.0127649,151,168,171,66,65,89,85,97,93,"75","71","85","78","75","72",30.67,-23.5294117647059
"278","SURRY COUNTY HIGH",10,44,1,90,283,"Surry County","DENDRON",NA,44,"42",31.0014,37.0803228,-76.9041087,54,61,63,28,26,35,35,34,33,"33","30","34","30","45","41",57.41,-25.7142857142857
"279","SUSSEX CENTRAL HIGH",340,45,1,91,284,"Sussex County","SUSSEX",NA,55,"55",33.4656,36.9200764,-77.2539662,72,59,78,41,41,38,38,56,53,"43","39","46","43","40","35",46.48,7.89473684210526
"280","TABB HIGH",230,100,2,98,321,"York County","YORKTOWN","<10",119,"29",44.0014,37.1235672,-76.4332147,302,266,277,154,150,145,145,156,151,"163","154","160","151","156","152",14.57,3.44827586206897
"281","TALLWOOD HIGH",920,81,2,128,299,"Virginia Beach City","VIRGINIA BEACH","<10",290,"151",187.0044,36.7848211,-76.1821724,457,452,520,232,222,234,228,322,309,"289","272","213","202","239","230",40.92,-2.63157894736842
"282","TANGIER COMBINED",530,46,2,1,4,"Accomack County","TANGIER",NA,0,"68",NA,37.82739,-75.99376,1,4,5,4,4,4,4,6,6,"4","4",NA,NA,NA,NA,NA,0
"283","TAZEWELL HIGH",890,298,7,92,287,"Tazewell County","TAZEWELL",NA,6,"3",65.0022,37.1250001,-81.5049651,131,116,130,67,65,64,63,62,58,"69","65","67","60","66","61",49.62,3.17460317460317
"284","TC WILLIAMS HIGH",210,126,4,101,9,"Alexandria City","ALEXANDRIA","227",751,"290",648.0454,38.8236629,-77.0844451,971,902,864,520,495,515,483,530,506,"459","415","445","414","469","440",66.74,2.48447204968944
"285","THOMAS DALE HIGH",610,20,1,21,63,"Chesterfield County","CHESTER","25",338,"182",258.974,37.3588353,-77.4405616,620,562,587,311,299,295,288,313,296,"312","293","276","258","263","248",41.77,3.81944444444444
"286","THOMAS JEFFERSON HIGH",1371,142,4,29,99,"Fairfax County","ALEXANDRIA",NA,346,"7",169.7133,38.8185123,-77.1687535,443,425,433,364,362,337,335,345,342,"341","337","321","308","291","285",38.31,8.05970149253731
"287","THOMAS JEFFERSON HIGH",20,5,1,123,241,"Richmond City","RICHMOND","<10",116,"102",3.4804,37.5714775,-77.4863025,154,147,168,79,77,84,79,86,81,"75","71","92","88","122","116",2.26,-2.53164556962025
"288","THOMAS WALKER HIGH",880,286,7,52,154,"Lee County","EWING",NA,2,NA,18.001,36.6474876,-83.4082302,47,59,61,26,26,17,16,36,35,"19","18","23","20","30","27",38.3,62.5
"289","TUNSTALL HIGH",1730,265,6,71,211,"Pittsylvania County","DRY FORK",NA,41,"29",94.9905,36.669493,-79.524529,209,223,256,109,106,114,109,153,144,"143","134","127","120","127","118",45.45,-2.75229357798165
"290","TURNER ASHBY HIGH",850,239,5,82,254,"Rockingham County","BRIDGEWATER","11",43,"2",67.5664,38.394992,-78.9556895,242,262,274,118,115,121,118,126,121,"146","141","123","115","96","94",27.92,-2.54237288135593
"291","TUSCARORA HIGH",200,171,4,53,168,"Loudoun County","LEESBURG","23",164,"36",87.9864,39.12823,-77.55547,366,388,340,199,195,227,222,186,177,"224","205","243","235","254","244",24.04,-12.1621621621622
"292","TWIN SPRINGS HIGH",780,293,7,84,261,"Scott County","NICKELSVILLE","<10",3,NA,21.9984,36.7798662,-82.4633047,48,40,54,21,20,25,24,32,31,"32","32","30","29","38","36",45.83,-16.6666666666667
"293","TWIN VALLEY HIGH",1042,278,7,14,34,"Buchanan County","PILGRIMS KNOB",NA,1,NA,27.0018,37.2402094,-81.9138613,42,35,50,22,21,22,20,22,21,"28","28","21","19","26","26",64.29,5
"294","UNION HIGH",1010,305,7,96,315,"Wise County","BIG STONE GAP","<10",8,"5",96.1625,36.8792223,-82.7381701,157,178,178,72,71,93,91,75,69,"82","78","64","58","77","74",61.25,-21.978021978022
"295","VARINA HIGH",580,35,1,43,142,"Henrico County","RICHMOND","<10",299,"274",198.0016,37.4727103,-77.3768613,376,342,386,164,153,176,165,193,167,"187","175","194","176","185","171",52.66,-7.27272727272727
"296","VIRGINIA HIGH",80,271,7,102,29,"Bristol City","BRISTOL",NA,13,"4",90.9975,36.6142894,-82.179959,165,176,159,89,86,82,79,92,85,"81","76","65","61","89","86",55.15,8.86075949367089
"297","WAKEFIELD HIGH",450,187,4,7,14,"Arlington County","ARLINGTON","98",442,"109",205.999,38.8477401,-77.1117173,565,545,523,264,255,264,249,277,248,"231","218","205","174","208","187",36.46,2.40963855421687
"298","WARHILL HIGH",204,84,2,131,311,"Williamsburg-James City County","WILLIAMSBURG",NA,150,"77",90.0012,37.33297,-76.75942,358,314,310,138,131,147,142,148,141,"155","143","131","123","131","121",25.14,-7.74647887323944
"299","WARREN COUNTY HIGH",230,205,4,93,301,"Warren County","FRONT ROYAL","<10",33,"5",67.0028,38.9167655,-78.1677306,191,202,201,51,48,84,80,81,73,"92","84","89","85","88","81",35.08,-40
"300","WARWICK HIGH",1070,54,2,117,192,"Newport News City","NEWPORT NEWS","<10",258,"186",137.9924,37.052569,-76.475836,364,384,307,154,144,152,145,136,120,"154","137","126","117","148","140",37.91,-0.689655172413793
"301","WASHINGTON & LEE HIGH",120,125,3,95,308,"Westmoreland County","MONTROSS",NA,65,"48",71.9952,38.06654,-76.77517,106,127,105,53,49,71,66,51,50,"60","53","61","49","39","38",67.92,-25.7575757575758
"302","WASHINGTON-LIBERTY HIGH",80,188,4,7,15,"Arlington County","ARLINGTON","85",348,"51",152.028,38.88701,-77.11089,615,680,585,341,320,359,347,324,306,"350","328","296","268","239","226",24.72,-7.78097982708934
"303","WAYNESBORO HIGH",600,216,5,130,306,"Waynesboro City","WAYNESBORO","<10",62,"21",85.0075,38.070414,-78.898357,185,200,169,68,67,82,80,86,82,"74","67","93","88","117","105",45.95,-16.25
"304","WEST POINT MIDDLE/HIGH",290,13,1,207,307,"West Point","WEST POINT",NA,13,"6",15.002,37.55679,-76.79615,65,65,73,36,36,37,37,40,40,"37","34","27","24","33","30",23.08,-2.7027027027027
"305","WEST POTOMAC HIGH",900,160,4,29,100,"Fairfax County","ALEXANDRIA","88",399,"123",249.996,38.7743791,-77.0718216,664,591,628,181,175,229,221,310,297,"289","269","224","208","250","236",37.65,-20.8144796380091
"306","WEST SPRINGFIELD HIGH",1610,144,4,29,101,"Fairfax County","SPRINGFIELD","15",266,"57",73.0032,38.786203,-77.2403357,536,556,554,360,355,358,355,351,331,"337","327","330","312","362","344",13.62,0
"307","WESTERN ALBEMARLE HIGH",140,222,5,2,8,"Albemarle County","CROZET",NA,33,"4",38.0064,38.047229,-78.7072274,296,270,284,174,172,165,164,164,160,"149","141","152","144","142","134",12.84,4.8780487804878
"308","WESTERN BRANCH HIGH",840,91,2,136,52,"Chesapeake City","CHESAPEAKE","<10",308,"205",141.015,36.848105,-76.4071428,510,510,530,256,246,259,246,278,252,"278","264","249","237","247","232",27.65,0
"309","WESTFIELD HIGH",2228,153,4,29,102,"Fairfax County","CHANTILLY","59",380,"88",149.0041,38.8850473,-77.4642814,647,680,621,413,399,384,379,359,346,"401","385","321","304","371","354",23.03,5.27704485488127
"310","WILLIAM BYRD HIGH",630,269,6,80,249,"Roanoke County","VINTON","<10",29,"10",49.998,37.2840552,-79.8586006,260,260,272,157,155,148,146,183,173,"175","169","207","199","136","130",19.23,6.16438356164384
"311","WILLIAM CAMPBELL HIGH",542,219,5,16,40,"Campbell County","NARUNA",NA,20,"18",32.9984,37.1129266,-79.0071084,64,71,58,27,25,30,28,29,28,"28","27","36","31","31","27",51.56,-10.7142857142857
"312","WILLIAM FLEMING HIGH",400,249,6,124,244,"Roanoke City","ROANOKE","22",246,"170",148.988,37.3101275,-79.983814,313,337,345,177,161,159,140,195,170,"165","136","164","143","145","126",47.6,15
"313","WILLIAM MONROE HIGH",72,226,5,39,122,"Greene County","STANARDSVILLE",NA,55,"11",63.9968,38.2956646,-78.442656,224,222,219,127,120,116,114,115,112,"147","144","109","103","130","123",28.57,5.26315789473684
"314","WILSON MEMORIAL HIGH",720,234,5,8,21,"Augusta County","FISHERSVILLE","<10",29,"11",54.2774,38.1224041,-78.9856919,202,177,196,96,90,84,82,106,100,"79","73","84","78","94","93",26.87,9.75609756097561
"315","WINDSOR HIGH",250,95,2,46,148,"Isle of Wight County","WINDSOR",NA,33,"21",25.003,36.8106335,-76.7392849,110,137,113,54,50,63,62,53,49,"49","46","49","45","49","47",22.73,-19.3548387096774
"316","WOODBRIDGE HIGH",60,195,4,75,230,"Prince William County","WOODBRIDGE","61",463,"131",238.9884,38.6814935,-77.3020313,644,616,614,314,299,318,306,338,309,"333","309","357","328","339","324",37.11,-2.28758169934641
"317","WOODGROVE HIGH",590,175,4,53,169,"Loudoun County","PURCELLVILLE","<10",89,"15",35.011,39.15915,-77.73077,446,395,400,227,221,194,190,208,201,"208","198","187","181","220","208",7.85,16.3157894736842
"318","WOODROW WILSON HIGH",1660,65,2,121,215,"Portsmouth City","PORTSMOUTH","<10",189,"157",167.3496,36.8140506,-76.3787593,264,333,297,108,104,132,124,160,151,"136","123","181","162","165","129",63.39,-16.1290322580645
"319","WOODSIDE HIGH",1396,57,2,117,193,"Newport News City","NEWPORT NEWS","<10",313,"226",137,37.1729005,-76.5240748,400,480,460,182,170,217,207,236,215,"255","230","220","196","246","236",34.25,-17.8743961352657
"320","WOODSON HIGH",1260,138,4,29,103,"Fairfax County","FAIRFAX","28",284,"25",61.104,38.8402362,-77.275978,570,612,665,357,348,402,396,426,405,"363","348","339","319","315","307",10.72,-12.1212121212121
"321","YORK HIGH",30,101,2,98,322,"York County","YORKTOWN","<10",92,"30",35.0012,37.204046,-76.5004689,254,241,282,123,122,128,126,176,165,"138","131","144","137","124","119",13.78,-3.17460317460317
"322","YORKTOWN HIGH",330,186,4,7,16,"Arlington County","ARLINGTON",NA,212,"40",56.0151,38.9029163,-77.1392821,571,536,509,288,276,286,281,271,256,"254","247","259","246","290","279",9.81,-1.77935943060498
